NOAA 15                 
1 25338U 98030A   23024.48520118  .00000306  00000+0  14571-3 0  9990
2 25338  98.6231  55.8851 0010599  18.9579 341.1994 14.26229917284779
